{
  "type": "FeatureCollection",
  "features": [
    {
      "type": "Feature",
      "properties": {
        "norad_id": 28054,
        "name": "DMSP 5D-3 F16 (USA 172)",
        "group": "weather",
        "lat": 70.86025926497135,
        "lon": -21.316661525942436,
        "alt_km": 839.5099133580961,
        "timestamp": "2025-12-14T09:36:22.677200+00:00",
        "meta_object_name": "DMSP 5D-3 F16 (USA 172)",
        "meta_object_id": "2003-048A",
        "meta_epoch": "2025-12-13T16:48:24.867648",
        "meta_mean_motion": 14.14424574,
        "meta_eccentricity": 0.00064652,
        "meta_inclination": 99.0047,
        "meta_ra_of_asc_node": 5.1648,
        "meta_arg_of_pericenter": 317.9114,
        "meta_mean_anomaly": 152.8557,
        "meta_ephemeris_type": 0,
        "meta_classification_type": "U",
        "meta_norad_cat_id": 28054,
        "meta_element_set_no": 999,
        "meta_rev_at_epoch": 14326,
        "meta_bstar": 0.00012835224,
        "meta_mean_motion_dot": 2e-06,
        "meta_mean_motion_ddot": 0,
        "tle_line1": "1 28054U 03048A   25347.70028782  .00000200  00000+0  12835-3 0  9992",
        "tle_line2": "2 28054  99.0047   5.1648 0006465 317.9114 152.8557 14.14424574143266"
      },
      "geometry": {
        "type": "Point",
        "coordinates": [
          -21.316661525942436,
          70.86025926497135
        ]
      }
    },
    {
      "type": "Feature",
      "properties": {
        "norad_id": 28912,
        "name": "METEOSAT-9 (MSG-2)",
        "group": "weather",
        "lat": -5.408344663403002,
        "lon": -87.19758598686607,
        "alt_km": 35771.7538902259,
        "timestamp": "2025-12-14T09:36:22.677249+00:00",
        "meta_object_name": "METEOSAT-9 (MSG-2)",
        "meta_object_id": "2005-049B",
        "meta_epoch": "2025-12-12T20:32:45.552192",
        "meta_mean_motion": 1.00276669,
        "meta_eccentricity": 0.00035766,
        "meta_inclination": 8.9401,
        "meta_ra_of_asc_node": 55.9765,
        "meta_arg_of_pericenter": 190.0838,
        "meta_mean_anomaly": 189.6047,
        "meta_ephemeris_type": 0,
        "meta_classification_type": "U",
        "meta_norad_cat_id": 28912,
        "meta_element_set_no": 999,
        "meta_rev_at_epoch": 513,
        "meta_bstar": 0,
        "meta_mean_motion_dot": 1.32e-06,
        "meta_mean_motion_ddot": 0,
        "tle_line1": "1 28912U 05049B   25346.85608278  .00000132  00000+0  00000+0 0  9998",
        "tle_line2": "2 28912   8.9401  55.9765 0003576 190.0838 189.6047  1.00276669  5134"
      },
      "geometry": {
        "type": "Point",
        "coordinates": [
          -87.19758598686607,
          -5.408344663403002
        ]
      }
    },
    {
      "type": "Feature",
      "properties": {
        "norad_id": 29522,
        "name": "DMSP 5D-3 F17 (USA 191)",
        "group": "weather",
        "lat": 16.046725377694845,
        "lon": -8.781034334232544,
        "alt_km": 849.440766409989,
        "timestamp": "2025-12-14T09:36:22.677267+00:00",
        "meta_object_name": "DMSP 5D-3 F17 (USA 191)",
        "meta_object_id": "2006-050A",
        "meta_epoch": "2025-12-13T14:51:39.168576",
        "meta_mean_motion": 14.14920068,
        "meta_eccentricity": 0.00094456,
        "meta_inclination": 98.7394,
        "meta_ra_of_asc_node": 352.99,
        "meta_arg_of_pericenter": 222.1254,
        "meta_mean_anomaly": 137.9194,
        "meta_ephemeris_type": 0,
        "meta_classification_type": "U",
        "meta_norad_cat_id": 29522,
        "meta_element_set_no": 999,
        "meta_rev_at_epoch": 98617,
        "meta_bstar": 0.00015688848,
        "meta_mean_motion_dot": 2.6e-06,
        "meta_mean_motion_ddot": 0,
        "tle_line1": "1 29522U 06050A   25347.61920334  .00000260  00000+0  15689-3 0  9999",
        "tle_line2": "2 29522  98.7394 352.9900 0009445 222.1254 137.9194 14.14920068986170"
      },
      "geometry": {
        "type": "Point",
        "coordinates": [
          -8.781034334232544,
          16.046725377694845
        ]
      }
    },
    {
      "type": "Feature",
      "properties": {
        "norad_id": 32958,
        "name": "FENGYUN 3A",
        "group": "weather",
        "lat": 60.974016900721956,
        "lon": 123.8519516165988,
        "alt_km": 826.6602924256922,
        "timestamp": "2025-12-14T09:36:22.677282+00:00",
        "meta_object_name": "FENGYUN 3A",
        "meta_object_id": "2008-026A",
        "meta_epoch": "2025-12-13T16:08:11.394240",
        "meta_mean_motion": 14.19515052,
        "meta_eccentricity": 0.0007879,
        "meta_inclination": 98.6698,
        "meta_ra_of_asc_node": 287.1795,
        "meta_arg_of_pericenter": 307.4942,
        "meta_mean_anomaly": 52.5517,
        "meta_ephemeris_type": 0,
        "meta_classification_type": "U",
        "meta_norad_cat_id": 32958,
        "meta_element_set_no": 999,
        "meta_rev_at_epoch": 90908,
        "meta_bstar": 0.00010870967,
        "meta_mean_motion_dot": 1.86e-06,
        "meta_mean_motion_ddot": 0,
        "tle_line1": "1 32958U 08026A   25347.67235410  .00000186  00000+0  10871-3 0  9996",
        "tle_line2": "2 32958  98.6698 287.1795 0007879 307.4942  52.5517 14.19515052909088"
      },
      "geometry": {
        "type": "Point",
        "coordinates": [
          123.8519516165988,
          60.974016900721956
        ]
      }
    },
    {
      "type": "Feature",
      "properties": {
        "norad_id": 35491,
        "name": "GOES 14",
        "group": "weather",
        "lat": 0.6390256453833569,
        "lon": 116.58962020629431,
        "alt_km": 35837.35937490578,
        "timestamp": "2025-12-14T09:36:22.677296+00:00",
        "meta_object_name": "GOES 14",
        "meta_object_id": "2009-033A",
        "meta_epoch": "2025-12-13T14:38:13.937856",
        "meta_mean_motion": 1.00096206,
        "meta_eccentricity": 7.107e-05,
        "meta_inclination": 1.2051,
        "meta_ra_of_asc_node": 85.3891,
        "meta_arg_of_pericenter": 164.8371,
        "meta_mean_anomaly": 301.567,
        "meta_ephemeris_type": 0,
        "meta_classification_type": "U",
        "meta_norad_cat_id": 35491,
        "meta_element_set_no": 999,
        "meta_rev_at_epoch": 473,
        "meta_bstar": 0,
        "meta_mean_motion_dot": -1.4e-07,
        "meta_mean_motion_ddot": 0,
        "tle_line1": "1 35491U 09033A   25347.60988354 -.00000014  00000+0  00000+0 0  9995",
        "tle_line2": "2 35491   1.2051  85.3891 0000710 164.8371 301.5670  1.00096206  4735"
      },
      "geometry": {
        "type": "Point",
        "coordinates": [
          116.58962020629431,
          0.6390256453833569
        ]
      }
    },
    {
      "type": "Feature",
      "properties": {
        "norad_id": 35951,
        "name": "DMSP 5D-3 F18 (USA 210)",
        "group": "weather",
        "lat": -61.56102279886671,
        "lon": 128.00737285398347,
        "alt_km": 858.8941278324974,
        "timestamp": "2025-12-14T09:36:22.677308+00:00",
        "meta_object_name": "DMSP 5D-3 F18 (USA 210)",
        "meta_object_id": "2009-057A",
        "meta_epoch": "2025-12-13T15:29:21.016032",
        "meta_mean_motion": 14.1476969,
        "meta_eccentricity": 0.00120458,
        "meta_inclination": 98.8835,
        "meta_ra_of_asc_node": 324.0416,
        "meta_arg_of_pericenter": 60.3616,
        "meta_mean_anomaly": 299.8755,
        "meta_ephemeris_type": 0,
        "meta_classification_type": "U",
        "meta_norad_cat_id": 35951,
        "meta_element_set_no": 999,
        "meta_rev_at_epoch": 83335,
        "meta_bstar": 0.00020605917,
        "meta_mean_motion_dot": 3.53e-06,
        "meta_mean_motion_ddot": 0,
        "tle_line1": "1 35951U 09057A   25347.64538213  .00000353  00000+0  20606-3 0  9994",
        "tle_line2": "2 35951  98.8835 324.0416 0012045  60.3616 299.8755 14.14769690833354"
      },
      "geometry": {
        "type": "Point",
        "coordinates": [
          128.00737285398347,
          -61.56102279886671
        ]
      }
    },
    {
      "type": "Feature",
      "properties": {
        "norad_id": 36411,
        "name": "EWS-G2 (GOES 15)",
        "group": "weather",
        "lat": -0.33214115751820156,
        "lon": -71.17001426601315,
        "alt_km": 35765.19476672027,
        "timestamp": "2025-12-14T09:36:22.677321+00:00",
        "meta_object_name": "EWS-G2 (GOES 15)",
        "meta_object_id": "2010-008A",
        "meta_epoch": "2025-12-13T12:01:43.925376",
        "meta_mean_motion": 1.00270045,
        "meta_eccentricity": 0.00056942,
        "meta_inclination": 0.816,
        "meta_ra_of_asc_node": 86.0649,
        "meta_arg_of_pericenter": 175.1161,
        "meta_mean_anomaly": 63.0861,
        "meta_ephemeris_type": 0,
        "meta_classification_type": "U",
        "meta_norad_cat_id": 36411,
        "meta_element_set_no": 999,
        "meta_rev_at_epoch": 5777,
        "meta_bstar": 0,
        "meta_mean_motion_dot": 5.3e-07,
        "meta_mean_motion_ddot": 0,
        "tle_line1": "1 36411U 10008A   25347.50120284  .00000053  00000+0  00000+0 0  9993",
        "tle_line2": "2 36411   0.8160  86.0649 0005694 175.1161  63.0861  1.00270045 57770"
      },
      "geometry": {
        "type": "Point",
        "coordinates": [
          -71.17001426601315,
          -0.33214115751820156
        ]
      }
    }
  ]
}